STARLINK-2107_new
1 17723C 21017B   21326.12098862  .00000142  00000-0  94940-5 0  3266
2 17723  53.0526 333.1838 0002124  52.0344  54.2004 15.06406184    13
STARLINK-2107_old
1 27723C 21017B   21325.15939367  .00000073  00000-0  48994-5 0  3252
2 27723  53.0521 337.5010 0002041  51.7763 236.8199 15.06394274    16
